NORAD_CAT_ID,OBJECT_NAME,OBJECT_TYPE,EPOCH,MEAN_MOTION,ECCENTRICITY,INCLINATION,RA_OF_ASC_NODE,ARG_OF_PERICENTER,MEAN_ANOMALY,BSTAR,MEAN_MOTION_DOT,MEAN_MOTION_DDOT,TLE_LINE0,TLE_LINE1,TLE_LINE2,SEMIMAJOR_AXIS,PERIOD,APOGEE,PERIGEE,DECAYED
53290.0,STARLINK-4149,PAYLOAD,2024-03-24 22:11:56,15.08867418,0.0001656,53.2179,152.8195,89.4865,270.6317,0.00028517,4.257e-05,0.0,0 STARLINK-4149,1 53290U 22086BA  24084.92495687  .00004257  00000-0  28517-3 0  9999,2 53290  53.2179 152.8195 0001656  89.4865 270.6317 15.08867418 93283,6917.797,95.436,540.807,538.516,0.0
53290.0,STARLINK-4149,PAYLOAD,2024-03-25 10:55:03,15.08834597,0.0001371,53.2171,150.4409,92.4813,267.6337,-0.00011949,-2.189e-05,0.0,0 STARLINK-4149,1 53290U 22086BA  24085.45489758 -.00002189  00000-0 -11949-3 0  9995,2 53290  53.2171 150.4409 0001371  92.4813 267.6337 15.08834597 93200,6917.897,95.438,540.71,538.813,0.0
53290.0,STARLINK-4149,PAYLOAD,2024-03-25 14:05:49,15.08843623,0.0001111,53.2151,149.8481,90.1696,269.9423,5.7958e-05,6.35e-06,0.0,0 STARLINK-4149,1 53290U 22086BA  24085.58737456  .00000635  00000-0  57958-4 0  9993,2 53290  53.2151 149.8481 0001111  90.1696 269.9423 15.08843623 93229,6917.869,95.437,540.503,538.966,0.0
53290.0,STARLINK-4149,PAYLOAD,2024-03-26 04:24:18,15.08831447,0.0001496,53.2155,147.169,105.4915,254.6242,-0.00018754,-3.271e-05,0.0,0 STARLINK-4149,1 53290U 22086BA  24086.18354356 -.00003271  00000-0 -18754-3 0  9995,2 53290  53.2155 147.1690 0001496 105.4915 254.6242 15.08831447 93317,6917.907,95.438,540.806,538.737,0.0
53290.0,STARLINK-4149,PAYLOAD,2024-03-26 10:45:51,15.08824603,0.0001248,53.217,145.9822,102.0882,258.025,-0.00014088,-2.528e-05,0.0,0 STARLINK-4149,1 53290U 22086BA  24086.44851667 -.00002528  00000-0 -14088-3 0  9991,2 53290  53.2170 145.9822 0001248 102.0882 258.0250 15.08824603 93355,6917.927,95.439,540.656,538.929,0.0
53290.0,STARLINK-4149,PAYLOAD,2024-03-26 20:18:10,15.08830764,0.0001227,53.2181,144.1961,99.8486,260.2644,-0.00014563,-2.604e-05,0.0,0 STARLINK-4149,1 53290U 22086BA  24086.84595460 -.00002604  00000-0 -14563-3 0  9994,2 53290  53.2181 144.1961 0001227  99.8486 260.2644 15.08830764 93416,6917.909,95.438,540.622,538.925,0.0
53290.0,STARLINK-4149,PAYLOAD,2024-03-27 10:36:38,15.08833368,9.89e-05,53.2173,141.5242,91.9533,268.1572,0.00029485,4.407e-05,0.0,0 STARLINK-4149,1 53290U 22086BA  24087.44210705  .00004407  00000-0  29485-3 0  9997,2 53290  53.2173 141.5242 0000989  91.9533 268.1572 15.08833368 93500,6917.901,95.438,540.45,539.081,0.0
53290.0,STARLINK-4149,PAYLOAD,2024-03-27 20:08:55,15.08853132,9.65e-05,53.2174,139.735,86.2942,273.8161,0.00025505,3.775e-05,0.0,0 STARLINK-4149,1 53290U 22086BA  24087.83953240  .00003775  00000-0  25505-3 0  9994,2 53290  53.2174 139.7350 0000965  86.2942 273.8161 15.08853132 93569,6917.84,95.437,540.373,539.038,0.0
53290.0,STARLINK-4149,PAYLOAD,2024-03-28 04:05:53,15.08823502,9.56e-05,53.217,138.2485,91.1181,268.992,0.00023939,3.522e-05,0.0,0 STARLINK-4149,1 53290U 22086BA  24088.17075502  .00003522  00000-0  23939-3 0  9997,2 53290  53.2170 138.2485 0000956  91.1181 268.9920 15.08823502 93610,6917.931,95.439,540.457,539.134,0.0
53290.0,STARLINK-4149,PAYLOAD,2024-03-28 12:02:46,15.08857883,9.41e-05,53.2169,136.7633,94.2597,265.8502,0.00053066,8.172e-05,0.0,0 STARLINK-4149,1 53290U 22086BA  24088.50192579  .00008172  00000-0  53066-3 0  9998,2 53290  53.2169 136.7633 0000941  94.2597 265.8502 15.08857883 93661,6917.826,95.436,540.342,539.04,0.0
53290.0,STARLINK-4149,PAYLOAD,2024-03-28 13:38:09,15.08859044,9.36e-05,53.2167,136.4657,94.7129,265.397,0.00052695,8.113e-05,0.0,0 STARLINK-4149,1 53290U 22086BA  24088.56816381  .00008113  00000-0  52695-3 0  9990,2 53290  53.2167 136.4657 0000936  94.7129 265.3970 15.08859044 93836,6917.822,95.436,540.335,539.04,0.0
53290.0,STARLINK-4149,PAYLOAD,2024-03-28 19:59:40,15.08874863,7.43e-05,53.2169,135.2744,51.2937,308.8122,0.00056274,8.688e-05,0.0,0 STARLINK-4149,1 53290U 22086BA  24088.83310796  .00008688  00000-0  56274-3 0  9993,2 53290  53.2169 135.2744 0000743  51.2937 308.8122 15.08874863 93718,6917.774,95.435,540.153,539.125,0.0
53290.0,STARLINK-4149,PAYLOAD,2024-03-29 02:21:17,15.08823754,0.0001101,53.2171,134.0877,96.8425,263.2692,-0.00014868,-2.652e-05,0.0,0 STARLINK-4149,1 53290U 22086BA  24089.09811788 -.00002652  00000-0 -14868-3 0  9999,2 53290  53.2171 134.0877 0001101  96.8425 263.2692 15.08823754 93754,6917.93,95.439,540.557,539.033,0.0
53290.0,STARLINK-4149,PAYLOAD,2024-03-29 11:53:35,15.08837248,0.0001243,53.218,132.3038,78.728,281.3852,-0.00014588,-2.609e-05,0.0,0 STARLINK-4149,1 53290U 22086BA  24089.49555107 -.00002609  00000-0 -14588-3 0  9994,2 53290  53.2180 132.3038 0001243  78.7280 281.3852 15.08837248 93818,6917.889,95.438,540.614,538.894,0.0
53290.0,STARLINK-4149,PAYLOAD,2024-03-29 19:50:30,15.08844464,0.0001189,53.2177,130.8175,81.8187,278.294,-9.6229e-05,-1.819e-05,0.0,0 STARLINK-4149,1 53290U 22086BA  24089.82674438 -.00001819  00000-0 -96229-4 0  9995,2 53290  53.2177 130.8175 0001189  81.8187 278.2940 15.08844464 93865,6917.867,95.437,540.554,538.909,0.0
53290.0,STARLINK-4149,PAYLOAD,2024-03-30 10:08:58,15.08841623,0.0001243,53.2161,128.1421,76.1808,283.9322,-0.00012953,-2.349e-05,0.0,0 STARLINK-4149,1 53290U 22086BA  24090.42289892 -.00002349  00000-0 -12953-3 0  9999,2 53290  53.2161 128.1421 0001243  76.1808 283.9322 15.08841623 94110,6917.875,95.437,540.6,538.881,0.0
53290.0,STARLINK-4149,PAYLOAD,2024-03-30 19:41:16,15.08850694,0.0001252,53.2161,126.3576,75.4838,284.6293,-2.0495e-05,-6.14e-06,0.0,0 STARLINK-4149,1 53290U 22086BA  24090.82033477 -.00000614  00000-0 -20495-4 0  9993,2 53290  53.2161 126.3576 0001252  75.4838 284.6293 15.08850694 94018,6917.848,95.437,540.579,538.847,0.0
53290.0,STARLINK-4149,PAYLOAD,2024-03-31 11:35:09,15.08843527,0.0001365,53.2154,123.384,72.0045,288.1096,0.00042284,6.449e-05,0.0,0 STARLINK-4149,1 53290U 22086BA  24091.48274399  .00006449  00000-0  42284-3 0  9995,2 53290  53.2154 123.3840 0001365  72.0045 288.1096 15.08843527 94117,6917.87,95.437,540.679,538.79,0.0
53290.0,STARLINK-4149,PAYLOAD,2024-03-31 19:32:04,15.08846414,0.0001303,53.2153,121.8946,78.9709,281.143,0.00038552,5.854e-05,0.0,0 STARLINK-4149,1 53290U 22086BA  24091.81394243  .00005854  00000-0  38552-3 0  9995,2 53290  53.2153 121.8946 0001303  78.9709 281.1430 15.08846414 94326,6917.861,95.437,540.627,538.824,0.0
53290.0,STARLINK-4149,PAYLOAD,2024-04-01 11:25:56,15.08834709,0.0001591,53.2187,118.922,100.3031,259.814,7.1407e-05,8.48e-06,0.0,0 STARLINK-4149,1 53290U 22086BA  24092.47635011  .00000848  00000-0  71407-4 0  9994,2 53290  53.2187 118.9220 0001591 100.3031 259.8140 15.08834709 94269,6917.897,95.438,540.862,538.661,0.0
53290.0,STARLINK-4149,PAYLOAD,2024-04-02 08:05:57,15.08849972,0.0001397,53.2166,115.0565,84.6879,275.4273,0.00031525,4.734e-05,0.0,0 STARLINK-4149,1 53290U 22086BA  24093.33746541  .00004734  00000-0  31525-3 0  9995,2 53290  53.2166 115.0565 0001397  84.6879 275.4273 15.08849972 94397,6917.85,95.437,540.681,538.748,0.0
53290.0,STARLINK-4149,PAYLOAD,2024-04-03 07:56:44,15.08844001,0.0001468,53.2172,110.5956,89.2076,270.9084,0.00013177,1.81e-05,0.0,0 STARLINK-4149,1 53290U 22086BA  24094.33106582  .00001810  00000-0  13177-3 0  9996,2 53290  53.2172 110.5956 0001468  89.2076 270.9084 15.08844001 94542,6917.868,95.437,540.749,538.718,0.0
53290.0,STARLINK-4149,PAYLOAD,2024-04-04 07:47:31,15.08841045,0.0001453,53.2168,106.1365,93.3462,266.7697,1.104e-05,-1.12e-06,0.0,0 STARLINK-4149,1 53290U 22086BA  24095.32466569 -.00000112  00000-0  11040-4 0  9993,2 53290  53.2168 106.1365 0001453  93.3462 266.7697 15.08841045 94695,6917.877,95.437,540.747,538.737,0.0
53290.0,STARLINK-4149,PAYLOAD,2024-04-04 17:19:49,15.08843887,0.0001403,53.2174,104.3514,92.3576,267.7577,7.8214e-05,9.57e-06,0.0,0 STARLINK-4149,1 53290U 22086BA  24095.72210490  .00000957  00000-0  78214-4 0  9999,2 53290  53.2174 104.3514 0001403  92.3576 267.7577 15.08843887 94917,6917.869,95.437,540.704,538.763,0.0
53290.0,STARLINK-4149,PAYLOAD,2024-04-05 04:27:32,15.08835544,0.0001584,53.2188,102.2713,96.4278,263.6895,8.7233e-05,1.1e-05,0.0,0 STARLINK-4149,1 53290U 22086BA  24096.18579069  .00001100  00000-0  87233-4 0  9992,2 53290  53.2188 102.2713 0001584  96.4278 263.6895 15.08835544 94823,6917.894,95.438,540.855,538.663,0.0
53290.0,STARLINK-4149,PAYLOAD,2024-04-05 07:38:18,15.08837135,0.0001607,53.2188,101.6771,97.7102,262.4073,9.4544e-05,1.217e-05,0.0,0 STARLINK-4149,1 53290U 22086BA  24096.31826969  .00001217  00000-0  94544-4 0  9993,2 53290  53.2188 101.6771 0001607  97.7102 262.4073 15.08837135 95000,6917.889,95.438,540.866,538.642,0.0
53290.0,STARLINK-4149,PAYLOAD,2024-04-05 17:10:37,15.08840749,0.0001619,53.2192,99.8926,95.0735,265.0442,9.8629e-05,1.282e-05,0.0,0 STARLINK-4149,1 53290U 22086BA  24096.71570740  .00001282  00000-0  98629-4 0  9990,2 53290  53.2192  99.8926 0001619  95.0735 265.0442 15.08840749 95061,6917.878,95.438,540.863,538.623,0.0
53290.0,STARLINK-4149,PAYLOAD,2024-04-06 09:04:28,15.08838942,0.0001601,53.2186,96.9181,91.0105,269.107,6.9026e-05,8.11e-06,0.0,0 STARLINK-4149,1 53290U 22086BA  24097.37810970  .00000811  00000-0  69026-4 0  9991,2 53290  53.2186  96.9181 0001601  91.0105 269.1070 15.08838942 95001,6917.884,95.438,540.856,538.641,0.0
53290.0,STARLINK-4149,PAYLOAD,2024-04-06 23:22:56,15.08839536,0.0001615,53.2185,94.2419,88.5292,271.5885,9.2198e-05,1.18e-05,0.0,0 STARLINK-4149,1 53290U 22086BA  24097.97426871  .00001180  00000-0  92198-4 0  9996,2 53290  53.2185  94.2419 0001615  88.5292 271.5885 15.08839536 95256,6917.882,95.438,540.864,538.63,0.0
53290.0,STARLINK-4149,PAYLOAD,2024-04-07 08:55:16,15.08837464,0.0001601,53.2185,92.4571,89.0599,271.0576,1.1467e-05,-1.06e-06,0.0,0 STARLINK-4149,1 53290U 22086BA  24098.37171344 -.00000106  00000-0  11467-4 0  9991,2 53290  53.2185  92.4571 0001601  89.0599 271.0576 15.08837464 95313,6917.888,95.438,540.861,538.646,0.0
